{
  "type": "FeatureCollection",
  "features": [
    {
      "type": "Feature",
      "properties": {
        "norad_id": 44873,
        "name": "CSG-1",
        "group": "resource",
        "lat": 34.91247010745478,
        "lon": -9.10503544090307,
        "alt_km": 619.7283912873354,
        "timestamp": "2025-12-09T23:33:23.507024+00:00",
        "meta_object_name": "CSG-1",
        "meta_object_id": "2019-092A",
        "meta_epoch": "2025-12-09T14:48:18.419904",
        "meta_mean_motion": 14.82158017,
        "meta_eccentricity": 0.00014558,
        "meta_inclination": 97.8811,
        "meta_ra_of_asc_node": 164.9881,
        "meta_arg_of_pericenter": 85.4565,
        "meta_mean_anomaly": 274.6814,
        "meta_ephemeris_type": 0,
        "meta_classification_type": "U",
        "meta_norad_cat_id": 44873,
        "meta_element_set_no": 999,
        "meta_rev_at_epoch": 32339,
        "meta_bstar": 0.00015160504,
        "meta_mean_motion_dot": 1.155e-05,
        "meta_mean_motion_ddot": 0,
        "tle_line1": "1 44873U 19092A   25343.61687986  .00001155  00000+0  15161-3 0  9993",
        "tle_line2": "2 44873  97.8811 164.9881 0001455  85.4565 274.6814 14.82158017323396"
      },
      "geometry": {
        "type": "Point",
        "coordinates": [
          -9.10503544090307,
          34.91247010745478
        ]
      }
    },
    {
      "type": "Feature",
      "properties": {
        "norad_id": 46277,
        "name": "NEMO-HD",
        "group": "resource",
        "lat": 82.27567484966465,
        "lon": -26.08078810515933,
        "alt_km": 436.71869374569815,
        "timestamp": "2025-12-09T23:33:23.507035+00:00",
        "meta_object_name": "NEMO-HD",
        "meta_object_id": "2020-061F",
        "meta_epoch": "2025-12-09T15:22:59.141856",
        "meta_mean_motion": 15.40225303,
        "meta_eccentricity": 0.00020678,
        "meta_inclination": 97.2211,
        "meta_ra_of_asc_node": 42.7782,
        "meta_arg_of_pericenter": 60.0292,
        "meta_mean_anomaly": 300.116,
        "meta_ephemeris_type": 0,
        "meta_classification_type": "U",
        "meta_norad_cat_id": 46277,
        "meta_element_set_no": 999,
        "meta_rev_at_epoch": 29276,
        "meta_bstar": 0.00037052428,
        "meta_mean_motion_dot": 0.00014822,
        "meta_mean_motion_ddot": 0,
        "tle_line1": "1 46277U 20061F   25343.64096229  .00014822  00000+0  37052-3 0  9996",
        "tle_line2": "2 46277  97.2211  42.7782 0002067  60.0292 300.1160 15.40225303292766"
      },
      "geometry": {
        "type": "Point",
        "coordinates": [
          -26.08078810515933,
          82.27567484966465
        ]
      }
    },
    {
      "type": "Feature",
      "properties": {
        "norad_id": 46984,
        "name": "SENTINEL-6A",
        "group": "resource",
        "lat": -17.0714835417075,
        "lon": 160.18912421766382,
        "alt_km": 1339.7781753007703,
        "timestamp": "2025-12-09T23:33:23.507045+00:00",
        "meta_object_name": "SENTINEL-6A",
        "meta_object_id": "2020-086A",
        "meta_epoch": "2025-12-09T10:32:14.333856",
        "meta_mean_motion": 12.80930517,
        "meta_eccentricity": 0.0007737,
        "meta_inclination": 66.0391,
        "meta_ra_of_asc_node": 169.164,
        "meta_arg_of_pericenter": 269.2403,
        "meta_mean_anomaly": 90.7726,
        "meta_ephemeris_type": 0,
        "meta_classification_type": "U",
        "meta_norad_cat_id": 46984,
        "meta_element_set_no": 999,
        "meta_rev_at_epoch": 23602,
        "meta_bstar": 6.2321862e-05,
        "meta_mean_motion_dot": -4.7e-07,
        "meta_mean_motion_ddot": 0,
        "tle_line1": "1 46984U 20086A   25343.43905479 -.00000047  00000+0  62322-4 0  9995",
        "tle_line2": "2 46984  66.0391 169.1640 0007737 269.2403  90.7726 12.80930517236025"
      },
      "geometry": {
        "type": "Point",
        "coordinates": [
          160.18912421766382,
          -17.0714835417075
        ]
      }
    },
    {
      "type": "Feature",
      "properties": {
        "norad_id": 48079,
        "name": "GAOFEN-12 02",
        "group": "resource",
        "lat": 58.66791890707567,
        "lon": -35.32978247746163,
        "alt_km": 619.8688511839218,
        "timestamp": "2025-12-09T23:33:23.507055+00:00",
        "meta_object_name": "GAOFEN-12 02",
        "meta_object_id": "2021-026A",
        "meta_epoch": "2025-12-09T15:10:44.300352",
        "meta_mean_motion": 14.80669698,
        "meta_eccentricity": 0.00034693,
        "meta_inclination": 97.9851,
        "meta_ra_of_asc_node": 337.6539,
        "meta_arg_of_pericenter": 107.091,
        "meta_mean_anomaly": 253.0682,
        "meta_ephemeris_type": 0,
        "meta_classification_type": "U",
        "meta_norad_cat_id": 48079,
        "meta_element_set_no": 999,
        "meta_rev_at_epoch": 25371,
        "meta_bstar": 0.00013055797,
        "meta_mean_motion_dot": 9.51e-06,
        "meta_mean_motion_ddot": 0,
        "tle_line1": "1 48079U 21026A   25343.63245718  .00000951  00000+0  13056-3 0  9994",
        "tle_line2": "2 48079  97.9851 337.6539 0003469 107.0910 253.0682 14.80669698253716"
      },
      "geometry": {
        "type": "Point",
        "coordinates": [
          -35.32978247746163,
          58.66791890707567
        ]
      }
    },
    {
      "type": "Feature",
      "properties": {
        "norad_id": 48268,
        "name": "PLEIADES NEO 3",
        "group": "resource",
        "lat": 62.11180797395816,
        "lon": -108.33608304620691,
        "alt_km": 617.1535033314167,
        "timestamp": "2025-12-09T23:33:23.507068+00:00",
        "meta_object_name": "PLEIADES NEO 3",
        "meta_object_id": "2021-034A",
        "meta_epoch": "2025-12-08T17:51:26.688096",
        "meta_mean_motion": 14.81674889,
        "meta_eccentricity": 0.00013213,
        "meta_inclination": 97.8951,
        "meta_ra_of_asc_node": 55.2426,
        "meta_arg_of_pericenter": 96.866,
        "meta_mean_anomaly": 263.2703,
        "meta_ephemeris_type": 0,
        "meta_classification_type": "U",
        "meta_norad_cat_id": 48268,
        "meta_element_set_no": 999,
        "meta_rev_at_epoch": 24945,
        "meta_bstar": 2.6372942e-05,
        "meta_mean_motion_dot": 1.55e-06,
        "meta_mean_motion_ddot": 0,
        "tle_line1": "1 48268U 21034A   25342.74405889  .00000155  00000+0  26373-4 0  9994",
        "tle_line2": "2 48268  97.8951  55.2426 0001321  96.8660 263.2703 14.81674889249458"
      },
      "geometry": {
        "type": "Point",
        "coordinates": [
          -108.33608304620691,
          62.11180797395816
        ]
      }
    },
    {
      "type": "Feature",
      "properties": {
        "norad_id": 49070,
        "name": "PLEIADES NEO 4",
        "group": "resource",
        "lat": -62.15173611113463,
        "lon": 71.6850966109936,
        "alt_km": 632.0470168015099,
        "timestamp": "2025-12-09T23:33:23.507078+00:00",
        "meta_object_name": "PLEIADES NEO 4",
        "meta_object_id": "2021-073E",
        "meta_epoch": "2025-12-09T14:07:00.443712",
        "meta_mean_motion": 14.81679595,
        "meta_eccentricity": 0.00013628,
        "meta_inclination": 97.8947,
        "meta_ra_of_asc_node": 56.0703,
        "meta_arg_of_pericenter": 89.0853,
        "meta_mean_anomaly": 271.0516,
        "meta_ephemeris_type": 0,
        "meta_classification_type": "U",
        "meta_norad_cat_id": 49070,
        "meta_element_set_no": 999,
        "meta_rev_at_epoch": 23329,
        "meta_bstar": 7.8727567e-05,
        "meta_mean_motion_dot": 5.68e-06,
        "meta_mean_motion_ddot": 0,
        "tle_line1": "1 49070U 21073E   25343.58819958  .00000568  00000+0  78728-4 0  9997",
        "tle_line2": "2 49070  97.8947  56.0703 0001362  89.0853 271.0516 14.81679595233298"
      },
      "geometry": {
        "type": "Point",
        "coordinates": [
          71.6850966109936,
          -62.15173611113463
        ]
      }
    },
    {
      "type": "Feature",
      "properties": {
        "norad_id": 49260,
        "name": "LANDSAT 9",
        "group": "resource",
        "lat": -16.993194763116563,
        "lon": -130.39619915494913,
        "alt_km": 707.5634021813539,
        "timestamp": "2025-12-09T23:33:23.507089+00:00",
        "meta_object_name": "LANDSAT 9",
        "meta_object_id": "2021-088A",
        "meta_epoch": "2025-12-09T11:07:07.369536",
        "meta_mean_motion": 14.57125619,
        "meta_eccentricity": 0.00011158,
        "meta_inclination": 98.2098,
        "meta_ra_of_asc_node": 51.6218,
        "meta_arg_of_pericenter": 94.4742,
        "meta_mean_anomaly": 265.6584,
        "meta_ephemeris_type": 0,
        "meta_classification_type": "U",
        "meta_norad_cat_id": 49260,
        "meta_element_set_no": 999,
        "meta_rev_at_epoch": 22337,
        "meta_bstar": 0.00019721256,
        "meta_mean_motion_dot": 8.44e-06,
        "meta_mean_motion_ddot": 0,
        "tle_line1": "1 49260U 21088A   25343.46327974  .00000844  00000+0  19721-3 0  9997",
        "tle_line2": "2 49260  98.2098  51.6218 0001115  94.4742 265.6584 14.57125619223374"
      },
      "geometry": {
        "type": "Point",
        "coordinates": [
          -130.39619915494913,
          -16.993194763116563
        ]
      }
    }
  ]
}